[{"OBJECT_ID":"2001-002A","OBJECT_NAME":"TURKSAT 2A","NORAD_CAT_ID":"26666","OBJECT_TYPE":"PAYLOAD","PERIOD":"1436.177","INCLINATION":"0.536","APOGEE":"35802.547","PERIGEE":"35773.782","ECCENTRICITY":"0.0003411","MEAN_MOTION":"1.00266192","TLE_LINE1":"1 26666U 01002A   16238.19527586  .00000000  00000-0  10000-3 0  9996","TLE_LINE2":"2 26666   0.5360  84.7113 0003411  53.4730 307.8437  1.00266192 57244","LAUNCH_DATE":"2001-01-10","LAUNCH_SITE":"FRENCH GUIANA","OWNER":"TURKEY","ORBIT_TYPE":"Geosynchronous","OPERATIONAL_STATUS":"Operational","satInfo":{"lng":97.76651552312009,"lat":0.9295482162268845,"elevation":-7.668689124056801,"azimuth":217.2334844768799,"range":42520.19323530884,"height":35767.30796512154,"velocity":3.07556667486853},"x":354,"y":48,"dx":-4,"dy":-30},{"OBJECT_ID":"2001-011A","OBJECT_NAME":"EUTE 28A (EB 1)","NORAD_CAT_ID":"26719","OBJECT_TYPE":"PAYLOAD","PERIOD":"1436.141","INCLINATION":"0.0695","APOGEE":"35799.570","PERIGEE":"35775.384","ECCENTRICITY":"0.0002868","MEAN_MOTION":"1.00268644","TLE_LINE1":"1 26719U 01011A   16238.08104793 +.00000130 +00000-0 +00000-0 0  9994","TLE_LINE2":"2 26719 000.0695 336.7071 0002868 195.5082 223.8190 01.00268644056656","LAUNCH_DATE":"2001-03-08","LAUNCH_SITE":"FRENCH GUIANA","OWNER":"EUROPEAN TELECOMMUNICATIONS SATELLITE ORGANIZATION (EUTELSAT)","ORBIT_TYPE":"Geosynchronous","OPERATIONAL_STATUS":"Operational","satInfo":{"lng":85.4447367257425,"lat":0.8938645852057736,"elevation":-7.703410505813346,"azimuth":229.5552632742575,"range":42525.160148963216,"height":35768.36670629626,"velocity":3.075151589052199},"x":357,"y":-28,"dx":2,"dy":-31},{"OBJECT_ID":"2001-012A","OBJECT_NAME":"XM-2","NORAD_CAT_ID":"26724","OBJECT_TYPE":"PAYLOAD","PERIOD":"1453.309","INCLINATION":"1.5254","APOGEE":"36141.632","PERIGEE":"36104.036","ECCENTRICITY":"0.0004423","MEAN_MOTION":"0.99084223","TLE_LINE1":"1 26724U 01012A   16237.39650829 -.00000265  00000-0  00000+0 0  9999","TLE_LINE2":"2 26724   1.5254  79.8079 0004423 349.9609  10.5779  0.99084223 56527","LAUNCH_DATE":"2001-03-18","LAUNCH_SITE":"SEA LAUNCH","OWNER":"UNITED STATES OF AMERICA","ORBIT_TYPE":"Geosynchronous","OPERATIONAL_STATUS":"Nonoperational","satInfo":{"lng":72.75866508629704,"lat":-0.08799065684993071,"elevation":-8.596206898747084,"azimuth":242.24133491370296,"range":42967.19285853819,"height":36106.42442616433,"velocity":3.0637262846705515},"x":345,"y":-107,"dx":9,"dy":-29},{"OBJECT_ID":"2001-018A","OBJECT_NAME":"XM-1","NORAD_CAT_ID":"26761","OBJECT_TYPE":"PAYLOAD","PERIOD":"1454.468","INCLINATION":"0.4465","APOGEE":"36182.649","PERIGEE":"36108.224","ECCENTRICITY":"0.0008751","MEAN_MOTION":"0.99005233","TLE_LINE1":"1 26761U 01018A   16238.27202336  .00000032  00000-0  00000+0 0  9991","TLE_LINE2":"2 26761   0.4465  89.9757 0008751  92.1067 113.1748  0.99005233 56078","LAUNCH_DATE":"2001-05-08","LAUNCH_SITE":"SEA LAUNCH","OWNER":"UNITED STATES OF AMERICA","ORBIT_TYPE":"Geosynchronous","OPERATIONAL_STATUS":"Nonoperational","satInfo":{"lng":20.388656821726258,"lat":-2.519168725675452,"elevation":-10.949630162977135,"azimuth":294.61134317827367,"range":43306.383427014436,"height":36180.923184664105,"velocity":3.0591040252805124},"x":126,"y":-339,"dx":29,"dy":-11},{"OBJECT_ID":"2001-018B","OBJECT_NAME":"BLOCK DM-SL R/B","NORAD_CAT_ID":"26762","OBJECT_TYPE":"ROCKET BODY","PERIOD":"643.306","INCLINATION":"1.039","APOGEE":"35709.034","PERIGEE":"905.323","ECCENTRICITY":"0.7049477","MEAN_MOTION":"2.23843647","TLE_LINE1":"1 26762U 01018B   16238.43829903 -.00000120  00000-0  20000-2 0  9999","TLE_LINE2":"2 26762   1.0390 271.9051 7049477  97.4386   8.1546  2.23843647125133","LAUNCH_DATE":"2001-05-08","LAUNCH_SITE":"SEA LAUNCH","OWNER":"SEA LAUNCH DEMO","ORBIT_TYPE":"Highly Elliptical Orbit","OPERATIONAL_STATUS":"N/A, derelict rocket body","satInfo":{"lng":-112.79147885537853,"lat":0.05280484193907343,"elevation":-8.7601985627845,"azimuth":67.79147885537846,"range":41493.076677176796,"height":34630.91614843781,"velocity":1.8137118536103025},"x":-319,"y":134,"dx":-7,"dy":17},{"OBJECT_ID":"2001-019A","OBJECT_NAME":"INTELSAT 10 (PAS 10)","NORAD_CAT_ID":"26766","OBJECT_TYPE":"PAYLOAD","PERIOD":"1436.072","INCLINATION":"0.9002","APOGEE":"35791.341","PERIGEE":"35780.901","ECCENTRICITY":"0.0001238","MEAN_MOTION":"1.00273481","TLE_LINE1":"1 26766U 01019A   16239.18088193  .00000098  00000-0  00000+0 0  9993","TLE_LINE2":"2 26766   0.9002  86.5745 0001238  98.2120 262.6801  1.00273481 56014","LAUNCH_DATE":"2001-05-15","LAUNCH_SITE":"TYURATAM MISSILE AND SPACE COMPLEX","OWNER":"UNITED STATES OF AMERICA","ORBIT_TYPE":"Geosynchronous","OPERATIONAL_STATUS":"Operational","satInfo":{"lng":100.25451137298326,"lat":1.0858350485823298,"elevation":-7.512705109239434,"azimuth":214.7454886270167,"range":42517.44583080434,"height":35781.89765184404,"velocity":3.0747855049667883},"x":352,"y":64,"dx":-5,"dy":-30},{"OBJECT_ID":"2001-024A","OBJECT_NAME":"INTELSAT 901","NORAD_CAT_ID":"26824","OBJECT_TYPE":"PAYLOAD","PERIOD":"1436.094","INCLINATION":"0.0589","APOGEE":"35798.070","PERIGEE":"35775.014","ECCENTRICITY":"0.0002734","MEAN_MOTION":"1.0027198","TLE_LINE1":"1 26824U 01024A   16239.00322626 -.00000169  00000-0  00000+0 0  9997","TLE_LINE2":"2 26824   0.0589 289.4474 0002734 238.8993 149.4875  1.00271980 55671","LAUNCH_DATE":"2001-06-09","LAUNCH_SITE":"FRENCH GUIANA","OWNER":"INTERNATIONAL TELECOMMUNICATIONS SATELLITE ORGANIZATION (INTELSAT)","ORBIT_TYPE":"Geosynchronous","OPERATIONAL_STATUS":"Operational","satInfo":{"lng":-109.31874210218575,"lat":-1.1860074088535881,"elevation":-9.738456406064305,"azimuth":64.31874210218571,"range":42732.00134139196,"height":35747.11840344273,"velocity":3.076398916726715},"x":-337,"y":118,"dx":-10,"dy":29},{"OBJECT_ID":"2001-025A","OBJECT_NAME":"ASTRA 2C","NORAD_CAT_ID":"26853","OBJECT_TYPE":"PAYLOAD","PERIOD":"1436.103","INCLINATION":"0.097","APOGEE":"35800.070","PERIGEE":"35773.380","ECCENTRICITY":"0.0003165","MEAN_MOTION":"1.00271327","TLE_LINE1":"1 26853U 01025A   16238.95478243 +.00000019 +00000-0 +00000-0 0  9994","TLE_LINE2":"2 26853 000.0970 290.5628 0003165 229.4018 218.6717 01.00271327009144","LAUNCH_DATE":"2001-06-16","LAUNCH_SITE":"TYURATAM MISSILE AND SPACE COMPLEX","OWNER":"SOCIÉTÉ EUROPÉENNE DES SATELLITES","ORBIT_TYPE":"Geosynchronous","OPERATIONAL_STATUS":"Operational","satInfo":{"lng":89.95030824888481,"lat":0.5448853946774724,"elevation":-8.0407672842595,"azimuth":225.0496917511152,"range":42583.809026666524,"height":35788.92666198554,"velocity":3.074514838141639},"x":358,"y":0,"dx":0,"dy":-31},{"OBJECT_ID":"2001-039A","OBJECT_NAME":"INTELSAT 902","NORAD_CAT_ID":"26900","OBJECT_TYPE":"PAYLOAD","PERIOD":"1436.078","INCLINATION":"0.0159","APOGEE":"35798.778","PERIGEE":"35773.699","ECCENTRICITY":"0.0002974","MEAN_MOTION":"1.00273061","TLE_LINE1":"1 26900U 01039A   16239.03591009  .00000005  00000-0  00000+0 0  9992","TLE_LINE2":"2 26900   0.0159 103.0047 0002974  54.9703 251.6618  1.00273061 54850","LAUNCH_DATE":"2001-08-30","LAUNCH_SITE":"FRENCH GUIANA","OWNER":"INTERNATIONAL TELECOMMUNICATIONS SATELLITE ORGANIZATION (INTELSAT)","ORBIT_TYPE":"Geosynchronous","OPERATIONAL_STATUS":"Operational","satInfo":{"lng":88.30919742056231,"lat":-0.3554750385908265,"elevation":-8.920299456708138,"azimuth":226.6908025794377,"range":42683.19427834719,"height":35789.614402685474,"velocity":3.0744940822635742},"x":358,"y":-11,"dx":1,"dy":-31},{"OBJECT_ID":"2001-042A","OBJECT_NAME":"EUTE 8 WEST A (AB 2)","NORAD_CAT_ID":"26927","OBJECT_TYPE":"PAYLOAD","PERIOD":"1436.095","INCLINATION":"0.08","APOGEE":"35805.309","PERIGEE":"35767.833","ECCENTRICITY":"0.0004444","MEAN_MOTION":"1.00271876","TLE_LINE1":"1 26927U 01042A   16238.81412957 -.00000128  00000-0  00000+0 0  9991","TLE_LINE2":"2 26927   0.0800  40.2110 0004444 120.7354  94.1224  1.00271876 54601","LAUNCH_DATE":"2001-09-25","LAUNCH_SITE":"FRENCH GUIANA","OWNER":"EUROPEAN TELECOMMUNICATIONS SATELLITE ORGANIZATION (EUTELSAT)","ORBIT_TYPE":"Geosynchronous","OPERATIONAL_STATUS":"Operational","satInfo":{"lng":-172.80999878896336,"lat":0.6627655740614378,"elevation":-7.931590628533787,"azimuth":127.80999878896334,"range":42540.67309504042,"height":35758.38823885725,"velocity":3.076391725164611},"x":-45,"y":355,"dx":-31,"dy":4},{"OBJECT_ID":"2001-052A","OBJECT_NAME":"DIRECTV 4S","NORAD_CAT_ID":"26985","OBJECT_TYPE":"PAYLOAD","PERIOD":"1436.101","INCLINATION":"0.0424","APOGEE":"35795.510","PERIGEE":"35777.852","ECCENTRICITY":"0.0002094","MEAN_MOTION":"1.00271483","TLE_LINE1":"1 26985U 01052A   16238.48332910 -.00000139 +00000-0 +00000-0 0  9992","TLE_LINE2":"2 26985 000.0424 285.4786 0002094 252.1909 229.3002 01.00271483015409","LAUNCH_DATE":"2001-11-27","LAUNCH_SITE":"FRENCH GUIANA","OWNER":"UNITED STATES OF AMERICA","ORBIT_TYPE":"Geosynchronous","OPERATIONAL_STATUS":"Operational","satInfo":{"lng":-105.15938736457585,"lat":-0.9381302629985028,"elevation":-9.490066119069922,"azimuth":60.159387364575856,"range":42739.215739951374,"height":35781.80397387041,"velocity":3.075096258590271},"x":-345,"y":94,"dx":-8,"dy":30},{"OBJECT_ID":"2002-002A","OBJECT_NAME":"INSAT 3C","NORAD_CAT_ID":"27298","OBJECT_TYPE":"PAYLOAD","PERIOD":"1436.105","INCLINATION":"0.0153","APOGEE":"35803.369","PERIGEE":"35770.177","ECCENTRICITY":"0.0003936","MEAN_MOTION":"1.00271156","TLE_LINE1":"1 27298U 02002A   16238.86269574 -.00000104 +00000-0 +00000-0 0  9995","TLE_LINE2":"2 27298 000.0153 126.2727 0003936 005.8586 226.9576 01.00271156053489","LAUNCH_DATE":"2002-01-23","LAUNCH_SITE":"FRENCH GUIANA","OWNER":"INDIA","ORBIT_TYPE":"Geosynchronous","OPERATIONAL_STATUS":"Operational","satInfo":{"lng":76.61130314419398,"lat":-1.368377499424912,"elevation":-9.908472008959402,"azimuth":238.38869685580602,"range":42789.40855497435,"height":35785.03200127362,"velocity":3.0747904539725788},"x":348,"y":-83,"dx":7,"dy":-30}]